EUTELSAT 139 WEST A     
1 28187U 04008A   26032.68475866 -.00000206  00000+0  00000+0 0  9998
2 28187   5.4856  73.6561 0002601 152.4333  52.2422  1.00842211 79994
EUTELSAT 174A           
1 28924U 05052A   26032.82475286 -.00000003  00000+0  00000+0 0  9994
2 28924   3.8758  78.2297 0006517 235.5306 289.1145  1.00272049 50972
EUTELSAT 33F            
1 29270U 06032A   26032.92509665  .00000145  00000+0  00000+0 0  9994
2 29270   1.3126  83.8647 0003695 232.2313 182.1316  1.00274226 45959
EUTELSAT HOTBIRD 13C    
1 33459U 08065A   26032.90854323 -.00000294  00000+0  00000+0 0  9994
2 33459   2.6030  80.8358 0003806 241.8636  86.1330  1.00268978 45984
EUTELSAT 36B            
1 36101U 09065A   26032.89280984  .00000103  00000+0  00000+0 0  9994
2 36101   0.1495  73.4152 0005938 240.1164 190.4285  1.00270318 59350
EUTELSAT KA-SAT 9A      
1 37258U 10069A   26032.89836477  .00000052  00000+0  00000+0 0  9991
2 37258   0.0565 335.6354 0002135 188.5914 300.2528  1.00273463 42652
EUTELSAT 7 WEST A       
1 37816U 11051A   26032.91712328 -.00000070  00000+0  00000+0 0  9995
2 37816   0.0646 352.4853 0003503 253.4896 208.9582  1.00271284 52524
EUTELSAT 16A            
1 37836U 11057A   26032.89836477  .00000094  00000+0  00000+0 0  9997
2 37836   0.0554 351.7502 0005579 323.0076 156.7264  1.00270181  5975
EUTELSAT 21B            
1 38992U 12062B   26032.88725214  .00000120  00000+0  00000+0 0  9993
2 38992   0.0668 355.9101 0003152 314.1151 163.0233  1.00268275 48476
EUTELSAT 70B            
1 39020U 12069A   26032.93255002 -.00000053  00000+0  00000+0 0  9998
2 39020   0.0659  20.5131 0003018 265.1956 252.6132  1.00272125 48153
EUTELSAT 117 WEST A     
1 39122U 13012A   26032.89528316 -.00000022  00000+0  00000+0 0  9992
2 39122   0.0358 276.7531 0003045  38.9576  21.8520  1.00270765 47070
EUTELSAT 7B             
1 39163U 13022A   26032.90947442  .00000038  00000+0  00000+0 0  9991
2 39163   0.0696 345.5025 0006104 353.7759 127.2023  1.00270886 46592
EXPRESS-AT1             
1 39612U 14010A   26032.92969001  .00000069  00000+0  00000+0 0  9999
2 39612   0.0336 264.0089 0000731 349.7916 268.9867  1.00271518 43462
EXPRESS-AT2             
1 39613U 14010B   26032.94624345  .00000000  00000+0  00000+0 0  9996
2 39613   0.0245  92.3143 0001807 194.4439 325.8901  1.00269603 43144
EUTELSAT 3B             
1 39773U 14030A   26032.90947442  .00000010  00000+0  00000+0 0  9998
2 39773   0.0631  12.1432 0002918 244.8130 205.6255  1.00272223 42714
EUTELSAT 115 WEST B     
1 40425U 15010B   26032.61048492 -.00000035  00000+0  00000+0 0  9996
2 40425   0.0123 202.6423 0000194 247.0359 146.9954  1.00270947 40031
EUTELSAT 8 WEST B       
1 40875U 15039B   26032.91694994 -.00000076  00000+0  00000+0 0  9998
2 40875   0.0655 355.9811 0003950 315.3775 142.8360  1.00271436 38304
