[{"OBJECT_NAME":"EUTELSAT 139 WEST A","OBJECT_ID":"2004-008A","EPOCH":"2026-02-01T16:26:03.148224","MEAN_MOTION":1.00842211,"ECCENTRICITY":0.00026012,"INCLINATION":5.4856,"RA_OF_ASC_NODE":73.6561,"ARG_OF_PERICENTER":152.4333,"MEAN_ANOMALY":52.2422,"EPHEMERIS_TYPE":0,"CLASSIFICATION_TYPE":"U","NORAD_CAT_ID":28187,"ELEMENT_SET_NO":999,"REV_AT_EPOCH":7999,"BSTAR":0,"MEAN_MOTION_DOT":-2.06e-6,"MEAN_MOTION_DDOT":0},{"OBJECT_NAME":"EUTELSAT 174A","OBJECT_ID":"2005-052A","EPOCH":"2026-02-01T19:47:38.647104","MEAN_MOTION":1.00272049,"ECCENTRICITY":0.00065177,"INCLINATION":3.8758,"RA_OF_ASC_NODE":78.2297,"ARG_OF_PERICENTER":235.5306,"MEAN_ANOMALY":289.1145,"EPHEMERIS_TYPE":0,"CLASSIFICATION_TYPE":"U","NORAD_CAT_ID":28924,"ELEMENT_SET_NO":999,"REV_AT_EPOCH":5097,"BSTAR":0,"MEAN_MOTION_DOT":-3.0e-8,"MEAN_MOTION_DDOT":0},{"OBJECT_NAME":"EUTELSAT 33F","OBJECT_ID":"2006-032A","EPOCH":"2026-02-01T22:12:08.350560","MEAN_MOTION":1.00274226,"ECCENTRICITY":0.00036959,"INCLINATION":1.3126,"RA_OF_ASC_NODE":83.8647,"ARG_OF_PERICENTER":232.2313,"MEAN_ANOMALY":182.1316,"EPHEMERIS_TYPE":0,"CLASSIFICATION_TYPE":"U","NORAD_CAT_ID":29270,"ELEMENT_SET_NO":999,"REV_AT_EPOCH":4595,"BSTAR":0,"MEAN_MOTION_DOT":1.45e-6,"MEAN_MOTION_DDOT":0},{"OBJECT_NAME":"EUTELSAT HOTBIRD 13C","OBJECT_ID":"2008-065A","EPOCH":"2026-02-01T21:48:18.135072","MEAN_MOTION":1.00268978,"ECCENTRICITY":0.00038067,"INCLINATION":2.603,"RA_OF_ASC_NODE":80.8358,"ARG_OF_PERICENTER":241.8636,"MEAN_ANOMALY":86.133,"EPHEMERIS_TYPE":0,"CLASSIFICATION_TYPE":"U","NORAD_CAT_ID":33459,"ELEMENT_SET_NO":999,"REV_AT_EPOCH":4598,"BSTAR":0,"MEAN_MOTION_DOT":-2.94e-6,"MEAN_MOTION_DDOT":0},{"OBJECT_NAME":"EUTELSAT 36B","OBJECT_ID":"2009-065A","EPOCH":"2026-02-01T21:25:38.770176","MEAN_MOTION":1.00270318,"ECCENTRICITY":0.00059384,"INCLINATION":0.1495,"RA_OF_ASC_NODE":73.4152,"ARG_OF_PERICENTER":240.1164,"MEAN_ANOMALY":190.4285,"EPHEMERIS_TYPE":0,"CLASSIFICATION_TYPE":"U","NORAD_CAT_ID":36101,"ELEMENT_SET_NO":999,"REV_AT_EPOCH":5935,"BSTAR":0,"MEAN_MOTION_DOT":1.03e-6,"MEAN_MOTION_DDOT":0},{"OBJECT_NAME":"EUTELSAT KA-SAT 9A","OBJECT_ID":"2010-069A","EPOCH":"2026-02-01T21:33:38.716128","MEAN_MOTION":1.00273463,"ECCENTRICITY":0.00021355,"INCLINATION":0.0565,"RA_OF_ASC_NODE":335.6354,"ARG_OF_PERICENTER":188.5914,"MEAN_ANOMALY":300.2528,"EPHEMERIS_TYPE":0,"CLASSIFICATION_TYPE":"U","NORAD_CAT_ID":37258,"ELEMENT_SET_NO":999,"REV_AT_EPOCH":4265,"BSTAR":0,"MEAN_MOTION_DOT":5.2e-7,"MEAN_MOTION_DDOT":0},{"OBJECT_NAME":"EUTELSAT 7 WEST A","OBJECT_ID":"2011-051A","EPOCH":"2026-02-01T22:00:39.451392","MEAN_MOTION":1.00271284,"ECCENTRICITY":0.00035036,"INCLINATION":0.0646,"RA_OF_ASC_NODE":352.4853,"ARG_OF_PERICENTER":253.4896,"MEAN_ANOMALY":208.9582,"EPHEMERIS_TYPE":0,"CLASSIFICATION_TYPE":"U","NORAD_CAT_ID":37816,"ELEMENT_SET_NO":999,"REV_AT_EPOCH":5252,"BSTAR":0,"MEAN_MOTION_DOT":-7.0e-7,"MEAN_MOTION_DDOT":0},{"OBJECT_NAME":"EUTELSAT 16A","OBJECT_ID":"2011-057A","EPOCH":"2026-02-01T21:33:38.716128","MEAN_MOTION":1.00270181,"ECCENTRICITY":0.00055795,"INCLINATION":0.0554,"RA_OF_ASC_NODE":351.7502,"ARG_OF_PERICENTER":323.0076,"MEAN_ANOMALY":156.7264,"EPHEMERIS_TYPE":0,"CLASSIFICATION_TYPE":"U","NORAD_CAT_ID":37836,"ELEMENT_SET_NO":999,"REV_AT_EPOCH":597,"BSTAR":0,"MEAN_MOTION_DOT":9.4e-7,"MEAN_MOTION_DDOT":0},{"OBJECT_NAME":"EUTELSAT 21B","OBJECT_ID":"2012-062B","EPOCH":"2026-02-01T21:17:38.584896","MEAN_MOTION":1.00268275,"ECCENTRICITY":0.00031524,"INCLINATION":0.0668,"RA_OF_ASC_NODE":355.9101,"ARG_OF_PERICENTER":314.1151,"MEAN_ANOMALY":163.0233,"EPHEMERIS_TYPE":0,"CLASSIFICATION_TYPE":"U","NORAD_CAT_ID":38992,"ELEMENT_SET_NO":999,"REV_AT_EPOCH":4847,"BSTAR":0,"MEAN_MOTION_DOT":1.2e-6,"MEAN_MOTION_DDOT":0},{"OBJECT_NAME":"EUTELSAT 70B","OBJECT_ID":"2012-069A","EPOCH":"2026-02-01T22:22:52.321728","MEAN_MOTION":1.00272125,"ECCENTRICITY":0.00030187,"INCLINATION":0.0659,"RA_OF_ASC_NODE":20.5131,"ARG_OF_PERICENTER":265.1956,"MEAN_ANOMALY":252.6132,"EPHEMERIS_TYPE":0,"CLASSIFICATION_TYPE":"U","NORAD_CAT_ID":39020,"ELEMENT_SET_NO":999,"REV_AT_EPOCH":4815,"BSTAR":0,"MEAN_MOTION_DOT":-5.3e-7,"MEAN_MOTION_DDOT":0},{"OBJECT_NAME":"EUTELSAT 117 WEST A","OBJECT_ID":"2013-012A","EPOCH":"2026-02-01T21:29:12.465024","MEAN_MOTION":1.00270765,"ECCENTRICITY":0.00030456,"INCLINATION":0.0358,"RA_OF_ASC_NODE":276.7531,"ARG_OF_PERICENTER":38.9576,"MEAN_ANOMALY":21.852,"EPHEMERIS_TYPE":0,"CLASSIFICATION_TYPE":"U","NORAD_CAT_ID":39122,"ELEMENT_SET_NO":999,"REV_AT_EPOCH":4707,"BSTAR":0,"MEAN_MOTION_DOT":-2.2e-7,"MEAN_MOTION_DDOT":0},{"OBJECT_NAME":"EUTELSAT 7B","OBJECT_ID":"2013-022A","EPOCH":"2026-02-01T21:49:38.589888","MEAN_MOTION":1.00270886,"ECCENTRICITY":0.00061049,"INCLINATION":0.0696,"RA_OF_ASC_NODE":345.5025,"ARG_OF_PERICENTER":353.7759,"MEAN_ANOMALY":127.2023,"EPHEMERIS_TYPE":0,"CLASSIFICATION_TYPE":"U","NORAD_CAT_ID":39163,"ELEMENT_SET_NO":999,"REV_AT_EPOCH":4659,"BSTAR":0,"MEAN_MOTION_DOT":3.8e-7,"MEAN_MOTION_DDOT":0},{"OBJECT_NAME":"EXPRESS-AT1","OBJECT_ID":"2014-010A","EPOCH":"2026-02-01T22:18:45.216864","MEAN_MOTION":1.00271518,"ECCENTRICITY":7.319e-5,"INCLINATION":0.0336,"RA_OF_ASC_NODE":264.0089,"ARG_OF_PERICENTER":349.7916,"MEAN_ANOMALY":268.9867,"EPHEMERIS_TYPE":0,"CLASSIFICATION_TYPE":"U","NORAD_CAT_ID":39612,"ELEMENT_SET_NO":999,"REV_AT_EPOCH":4346,"BSTAR":0,"MEAN_MOTION_DOT":6.9e-7,"MEAN_MOTION_DDOT":0},{"OBJECT_NAME":"EXPRESS-AT2","OBJECT_ID":"2014-010B","EPOCH":"2026-02-01T22:42:35.434080","MEAN_MOTION":1.00269603,"ECCENTRICITY":0.00018072,"INCLINATION":0.0245,"RA_OF_ASC_NODE":92.3143,"ARG_OF_PERICENTER":194.4439,"MEAN_ANOMALY":325.8901,"EPHEMERIS_TYPE":0,"CLASSIFICATION_TYPE":"U","NORAD_CAT_ID":39613,"ELEMENT_SET_NO":999,"REV_AT_EPOCH":4314,"BSTAR":0,"MEAN_MOTION_DOT":0,"MEAN_MOTION_DDOT":0},{"OBJECT_NAME":"EUTELSAT 3B","OBJECT_ID":"2014-030A","EPOCH":"2026-02-01T21:49:38.589888","MEAN_MOTION":1.00272223,"ECCENTRICITY":0.00029185,"INCLINATION":0.0631,"RA_OF_ASC_NODE":12.1432,"ARG_OF_PERICENTER":244.813,"MEAN_ANOMALY":205.6255,"EPHEMERIS_TYPE":0,"CLASSIFICATION_TYPE":"U","NORAD_CAT_ID":39773,"ELEMENT_SET_NO":999,"REV_AT_EPOCH":4271,"BSTAR":0,"MEAN_MOTION_DOT":1.0e-7,"MEAN_MOTION_DDOT":0},{"OBJECT_NAME":"EUTELSAT 115 WEST B","OBJECT_ID":"2015-010B","EPOCH":"2026-02-01T14:39:05.897088","MEAN_MOTION":1.00270947,"ECCENTRICITY":1.948e-5,"INCLINATION":0.0123,"RA_OF_ASC_NODE":202.6423,"ARG_OF_PERICENTER":247.0359,"MEAN_ANOMALY":146.9954,"EPHEMERIS_TYPE":0,"CLASSIFICATION_TYPE":"U","NORAD_CAT_ID":40425,"ELEMENT_SET_NO":999,"REV_AT_EPOCH":4003,"BSTAR":0,"MEAN_MOTION_DOT":-3.5e-7,"MEAN_MOTION_DDOT":0},{"OBJECT_NAME":"EUTELSAT 8 WEST B","OBJECT_ID":"2015-039B","EPOCH":"2026-02-01T22:00:24.474816","MEAN_MOTION":1.00271436,"ECCENTRICITY":0.00039504,"INCLINATION":0.0655,"RA_OF_ASC_NODE":355.9811,"ARG_OF_PERICENTER":315.3775,"MEAN_ANOMALY":142.836,"EPHEMERIS_TYPE":0,"CLASSIFICATION_TYPE":"U","NORAD_CAT_ID":40875,"ELEMENT_SET_NO":999,"REV_AT_EPOCH":3830,"BSTAR":0,"MEAN_MOTION_DOT":-7.6e-7,"MEAN_MOTION_DDOT":0}]
